[{"OBJECT_NAME":"STARLINK-35055","OBJECT_ID":"2025-200E","EPOCH":"2026-03-09T16:58:41.927808","MEAN_MOTION":15.05650325,"ECCENTRICITY":5.95e-5,"INCLINATION":97.6021,"RA_OF_ASC_NODE":139.8176,"ARG_OF_PERICENTER":117.7964,"MEAN_ANOMALY":242.3323,"EPHEMERIS_TYPE":0,"CLASSIFICATION_TYPE":"U","NORAD_CAT_ID":65524,"ELEMENT_SET_NO":999,"REV_AT_EPOCH":2913,"BSTAR":0.0002462695,"MEAN_MOTION_DOT":3.494e-5,"MEAN_MOTION_DDOT":0},{"OBJECT_NAME":"OBJECT H","OBJECT_ID":"2022-023H","EPOCH":"2026-03-09T22:57:41.313888","MEAN_MOTION":15.21889274,"ECCENTRICITY":0.00933376,"INCLINATION":63.6345,"RA_OF_ASC_NODE":356.5929,"ARG_OF_PERICENTER":305.1945,"MEAN_ANOMALY":54.0457,"EPHEMERIS_TYPE":0,"CLASSIFICATION_TYPE":"U","NORAD_CAT_ID":51953,"ELEMENT_SET_NO":999,"REV_AT_EPOCH":22114,"BSTAR":0.00043867493,"MEAN_MOTION_DOT":0.00011084,"MEAN_MOTION_DDOT":0}]
